start=new Date('2021-11-14T00:00:00.000Z').valueOf();
sats=[{"OBJECT_TYPE":"PAYLOAD","MEAN_MOTION_DOT":"-0.00000591","TLE_LINE2":"2 46360  53.0541 209.8293 0001540  67.1601 292.9551 15.06398696 67293","PERIOD":"95.592","ARG_OF_PERICENTER":"67.1601","ELEMENT_SET_NO":"999","GP_ID":"189711750","ECCENTRICITY":"0.00015400","RA_OF_ASC_NODE":"209.8293","SITE":"AFETR","FILE":"3214514","REF_FRAME":"TEME","REV_AT_EPOCH":"6729","BSTAR":"-0.00002080100000","MEAN_MOTION_DDOT":"0.0000000000000","INCLINATION":"53.0541","APOAPSIS":"548.284","NORAD_CAT_ID":"46360","LAUNCH_DATE":"2020-09-03","SEMIMAJOR_AXIS":"6925.353","RCS_SIZE":"LARGE","OBJECT_NAME":"STARLINK-1713","TIME_SYSTEM":"UTC","CENTER_NAME":"EARTH","DECAY_DATE":null,"EPHEMERIS_TYPE":"0","COUNTRY_CODE":"US","MEAN_MOTION":"15.06398696","MEAN_ELEMENT_THEORY":"SGP4","OBJECT_ID":"2020-062AM","EPOCH":"2021-11-13T23:06:31.776192","MEAN_ANOMALY":"292.9551","TLE_LINE1":"1 46360U 20062AM  21317.96286778 -.00000591  00000-0 -20801-4 0  9998","CLASSIFICATION_TYPE":"U","PERIAPSIS":"546.151"},{"LAUNCH_DATE":"2020-09-03","OBJECT_NAME":"STARLINK-1722","RCS_SIZE":"LARGE","SEMIMAJOR_AXIS":"6925.372","CENTER_NAME":"EARTH","DECAY_DATE":null,"TIME_SYSTEM":"UTC","OBJECT_ID":"2020-062AN","COUNTRY_CODE":"US","MEAN_MOTION":"15.06392490","EPHEMERIS_TYPE":"0","MEAN_ELEMENT_THEORY":"SGP4","EPOCH":"2021-11-13T20:48:31.303008","TLE_LINE1":"1 46361U 20062AN  21317.86702897 -.00000571  00000-0 -19428-4 0  9994","CLASSIFICATION_TYPE":"U","MEAN_ANOMALY":"285.3573","PERIAPSIS":"546.037","PERIOD":"95.593","TLE_LINE2":"2 46361  53.0546 210.2585 0001732  74.7607 285.3573 15.06392490 67276","ELEMENT_SET_NO":"999","ARG_OF_PERICENTER":"74.7607","MEAN_MOTION_DOT":"-0.00000571","OBJECT_TYPE":"PAYLOAD","GP_ID":"189712000","ECCENTRICITY":"0.00017320","RA_OF_ASC_NODE":"210.2585","SITE":"AFETR","FILE":"3214514","REF_FRAME":"TEME","BSTAR":"-0.00001942800000","REV_AT_EPOCH":"6727","APOAPSIS":"548.436","NORAD_CAT_ID":"46361","INCLINATION":"53.0546","MEAN_MOTION_DDOT":"0.0000000000000"},{"PERIAPSIS":"545.937","EPOCH":"2021-11-13T23:27:45.317376","MEAN_ANOMALY":"292.6772","TLE_LINE1":"1 46362U 20062AP  21317.97760784  .00000151  00000-0  29073-4 0  9995","CLASSIFICATION_TYPE":"U","TIME_SYSTEM":"UTC","CENTER_NAME":"EARTH","DECAY_DATE":null,"EPHEMERIS_TYPE":"0","COUNTRY_CODE":"US","MEAN_MOTION":"15.06398598","MEAN_ELEMENT_THEORY":"SGP4","OBJECT_ID":"2020-062AP","LAUNCH_DATE":"2020-09-03","RCS_SIZE":"LARGE","SEMIMAJOR_AXIS":"6925.353","OBJECT_NAME":"STARLINK-1726","REV_AT_EPOCH":"6729","BSTAR":"0.00002907300000","MEAN_MOTION_DDOT":"0.0000000000000","APOAPSIS":"548.498","INCLINATION":"53.0523","NORAD_CAT_ID":"46362","RA_OF_ASC_NODE":"209.7510","ECCENTRICITY":"0.00018490","FILE":"3214514","SITE":"AFETR","REF_FRAME":"TEME","OBJECT_TYPE":"PAYLOAD","MEAN_MOTION_DOT":"0.00000151","PERIOD":"95.592","TLE_LINE2":"2 46362  53.0523 209.7510 0001849  67.4412 292.6772 15.06398598 67294","ARG_OF_PERICENTER":"67.4412","ELEMENT_SET_NO":"999","GP_ID":"189712251"},{"OBJECT_NAME":"STARLINK-1739","RCS_SIZE":"LARGE","SEMIMAJOR_AXIS":"6925.347","LAUNCH_DATE":"2020-09-03","OBJECT_ID":"2020-062AQ","MEAN_ELEMENT_THEORY":"SGP4","COUNTRY_CODE":"US","MEAN_MOTION":"15.06400509","EPHEMERIS_TYPE":"0","DECAY_DATE":null,"CENTER_NAME":"EARTH","TIME_SYSTEM":"UTC","CLASSIFICATION_TYPE":"U","TLE_LINE1":"1 46363U 20062AQ  21317.97022724  .00001607  00000-0  12679-3 0  9991","MEAN_ANOMALY":"283.1613","EPOCH":"2021-11-13T23:17:07.633536","PERIAPSIS":"546.012","GP_ID":"189712502","ELEMENT_SET_NO":"999","ARG_OF_PERICENTER":"76.9569","PERIOD":"95.592","TLE_LINE2":"2 46363  53.0537 209.7867 0001733  76.9569 283.1613 15.06400509 67290","OBJECT_TYPE":"PAYLOAD","MEAN_MOTION_DOT":"0.00001607","REF_FRAME":"TEME","SITE":"AFETR","FILE":"3214514","ECCENTRICITY":"0.00017330","RA_OF_ASC_NODE":"209.7867","APOAPSIS":"548.412","NORAD_CAT_ID":"46363","INCLINATION":"53.0537","MEAN_MOTION_DDOT":"0.0000000000000","BSTAR":"0.00012679000000","REV_AT_EPOCH":"6729"},{"PERIAPSIS":"543.838","CLASSIFICATION_TYPE":"U","TLE_LINE1":"1 46364U 20062AR  21317.92048956  .00000425  00000-0  47509-4 0  9990","MEAN_ANOMALY":"230.8257","EPOCH":"2021-11-13T22:05:30.297984","OBJECT_ID":"2020-062AR","MEAN_ELEMENT_THEORY":"SGP4","COUNTRY_CODE":"US","MEAN_MOTION":"15.06391115","EPHEMERIS_TYPE":"0","DECAY_DATE":null,"CENTER_NAME":"EARTH","TIME_SYSTEM":"UTC","OBJECT_NAME":"STARLINK-1763","SEMIMAJOR_AXIS":"6925.376","RCS_SIZE":"LARGE","LAUNCH_DATE":"2020-09-03","INCLINATION":"53.0540","APOAPSIS":"550.643","NORAD_CAT_ID":"46364","MEAN_MOTION_DDOT":"0.0000000000000","BSTAR":"0.00004750900000","REV_AT_EPOCH":"6756","REF_FRAME":"TEME","FILE":"3214514","SITE":"AFETR","ECCENTRICITY":"0.00049130","RA_OF_ASC_NODE":"190.0221","GP_ID":"189711250","ELEMENT_SET_NO":"999","ARG_OF_PERICENTER":"129.3168","PERIOD":"95.593","TLE_LINE2":"2 46364  53.0540 190.0221 0004913 129.3168 230.8257 15.06391115 67567","MEAN_MOTION_DOT":"0.00000425","OBJECT_TYPE":"PAYLOAD"},{"COUNTRY_CODE":"US","MEAN_MOTION":"15.06396401","EPHEMERIS_TYPE":"0","MEAN_ELEMENT_THEORY":"SGP4","OBJECT_ID":"2020-062AS","TIME_SYSTEM":"UTC","CENTER_NAME":"EARTH","DECAY_DATE":null,"RCS_SIZE":"LARGE","SEMIMAJOR_AXIS":"6925.360","OBJECT_NAME":"STARLINK-1550","LAUNCH_DATE":"2020-09-03","PERIAPSIS":"545.960","MEAN_ANOMALY":"290.0326","TLE_LINE1":"1 46365U 20062AS  21317.88180565  .00008382  00000-0  58097-3 0  9992","CLASSIFICATION_TYPE":"U","EPOCH":"2021-11-13T21:09:48.008160","SITE":"AFETR","FILE":"3214514","REF_FRAME":"TEME","RA_OF_ASC_NODE":"210.1846","ECCENTRICITY":"0.00018260","GP_ID":"189711500","MEAN_MOTION_DOT":"0.00008382","OBJECT_TYPE":"PAYLOAD","PERIOD":"95.592","TLE_LINE2":"2 46365  53.0528 210.1846 0001826  70.0860 290.0326 15.06396401 67278","ELEMENT_SET_NO":"999","ARG_OF_PERICENTER":"70.0860","MEAN_MOTION_DDOT":"0.0000000000000","APOAPSIS":"548.489","NORAD_CAT_ID":"46365","INCLINATION":"53.0528","REV_AT_EPOCH":"6727","BSTAR":"0.00058097000000"},{"LAUNCH_DATE":"2020-09-03","SEMIMAJOR_AXIS":"6925.394","RCS_SIZE":"LARGE","OBJECT_NAME":"STARLINK-1651","TIME_SYSTEM":"UTC","DECAY_DATE":null,"CENTER_NAME":"EARTH","MEAN_ELEMENT_THEORY":"SGP4","COUNTRY_CODE":"US","MEAN_MOTION":"15.06385034","EPHEMERIS_TYPE":"0","OBJECT_ID":"2020-062AT","EPOCH":"2021-11-13T20:53:50.671968","MEAN_ANOMALY":"285.5656","CLASSIFICATION_TYPE":"U","TLE_LINE1":"1 46366U 20062AT  21317.87072537 -.00000227  00000-0  36772-5 0  9990","PERIAPSIS":"546.252","OBJECT_TYPE":"PAYLOAD","MEAN_MOTION_DOT":"-0.00000227","ARG_OF_PERICENTER":"74.5494","ELEMENT_SET_NO":"999","TLE_LINE2":"2 46366  53.0540 210.2366 0001454  74.5494 285.5656 15.06385034 67275","PERIOD":"95.593","GP_ID":"189712752","ECCENTRICITY":"0.00014540","RA_OF_ASC_NODE":"210.2366","REF_FRAME":"TEME","SITE":"AFETR","FILE":"3214514","REV_AT_EPOCH":"6727","BSTAR":"0.00000367720000","MEAN_MOTION_DDOT":"0.0000000000000","APOAPSIS":"548.266","NORAD_CAT_ID":"46366","INCLINATION":"53.0540"},{"BSTAR":"0.00004910400000","REV_AT_EPOCH":"6693","APOAPSIS":"548.388","NORAD_CAT_ID":"46368","INCLINATION":"53.0554","MEAN_MOTION_DDOT":"0.0000000000000","RA_OF_ASC_NODE":"235.2460","ECCENTRICITY":"0.00016880","REF_FRAME":"TEME","SITE":"AFETR","FILE":"3214514","ARG_OF_PERICENTER":"67.6565","ELEMENT_SET_NO":"999","TLE_LINE2":"2 46368  53.0554 235.2460 0001688  67.6565 292.4603 15.06398252 66932","PERIOD":"95.592","OBJECT_TYPE":"PAYLOAD","MEAN_MOTION_DOT":"0.00000450","GP_ID":"189713003","PERIAPSIS":"546.050","EPOCH":"2021-11-13T20:53:10.317984","CLASSIFICATION_TYPE":"U","TLE_LINE1":"1 46368U 20062AV  21317.87025831  .00000450  00000-0  49104-4 0  9996","MEAN_ANOMALY":"292.4603","DECAY_DATE":null,"CENTER_NAME":"EARTH","TIME_SYSTEM":"UTC","OBJECT_ID":"2020-062AV","MEAN_ELEMENT_THEORY":"SGP4","MEAN_MOTION":"15.06398252","COUNTRY_CODE":"US","EPHEMERIS_TYPE":"0","LAUNCH_DATE":"2020-09-03","OBJECT_NAME":"STARLINK-1658","SEMIMAJOR_AXIS":"6925.354","RCS_SIZE":"LARGE"},{"PERIAPSIS":"296.102","EPOCH":"2021-11-13T21:00:05.276448","CLASSIFICATION_TYPE":"U","TLE_LINE1":"1 46369U 20062AW  21317.87506107  .00301975  45422-4  90311-3 0  9999","MEAN_ANOMALY":"207.7251","DECAY_DATE":null,"CENTER_NAME":"EARTH","TIME_SYSTEM":"UTC","OBJECT_ID":"2020-062AW","MEAN_ELEMENT_THEORY":"SGP4","COUNTRY_CODE":"US","MEAN_MOTION":"15.91897569","EPHEMERIS_TYPE":"0","LAUNCH_DATE":"2020-09-03","OBJECT_NAME":"STARLINK-1662","SEMIMAJOR_AXIS":"6675.110","RCS_SIZE":"LARGE","BSTAR":"0.00090311000000","REV_AT_EPOCH":"6766","NORAD_CAT_ID":"46369","APOAPSIS":"297.848","INCLINATION":"53.0464","MEAN_MOTION_DDOT":"0.0000454220000","ECCENTRICITY":"0.00013080","RA_OF_ASC_NODE":"182.6114","REF_FRAME":"TEME","FILE":"3214514","SITE":"AFETR","ELEMENT_SET_NO":"999","ARG_OF_PERICENTER":"152.3845","TLE_LINE2":"2 46369  53.0464 182.6114 0001308 152.3845 207.7251 15.91897569 67664","PERIOD":"90.458","OBJECT_TYPE":"PAYLOAD","MEAN_MOTION_DOT":"0.00301975","GP_ID":"189711751"},{"TIME_SYSTEM":"UTC","DECAY_DATE":null,"CENTER_NAME":"EARTH","MEAN_ELEMENT_THEORY":"SGP4","COUNTRY_CODE":"US","MEAN_MOTION":"15.06395952","EPHEMERIS_TYPE":"0","OBJECT_ID":"2020-062AX","LAUNCH_DATE":"2020-09-03","SEMIMAJOR_AXIS":"6925.361","RCS_SIZE":"LARGE","OBJECT_NAME":"STARLINK-1670","PERIAPSIS":"546.208","EPOCH":"2021-11-13T18:24:33.495840","MEAN_ANOMALY":"289.8795","CLASSIFICATION_TYPE":"U","TLE_LINE1":"1 46370U 20062AX  21317.76705435 -.00000207  00000-0  49933-5 0  9994","ECCENTRICITY":"0.00014700","RA_OF_ASC_NODE":"235.7087","REF_FRAME":"TEME","FILE":"3214514","SITE":"AFETR","MEAN_MOTION_DOT":"-0.00000207","OBJECT_TYPE":"PAYLOAD","ARG_OF_PERICENTER":"70.2352","ELEMENT_SET_NO":"999","PERIOD":"95.592","TLE_LINE2":"2 46370  53.0551 235.7087 0001470  70.2352 289.8795 15.06395952 66919","GP_ID":"189712001","REV_AT_EPOCH":"6691","BSTAR":"0.00000499330000","MEAN_MOTION_DDOT":"0.0000000000000","APOAPSIS":"548.244","INCLINATION":"53.0551","NORAD_CAT_ID":"46370"}];
